norad_id,name,regime,epoch,line1,line2,inclination,eccentricity,mean_motion,raan,arg_pericenter,mean_anomaly
36395,SDO,IGO,21192.29705990,1 36395U 10005A   21192.29705990 -.00000081  00000-0  00000-0 0    12\,2 36395  31.0090 114.8139 0001196 320.7402 218.8287  1.00270329 41996,31.009,0.0001196,1.00270329,114.8139,320.7402,218.8287
36395,SDO,IGO,21193.30178573,1 36395U 10005A   21193.30178573 -.00000078  00000-0  00000-0 0    12\,2 36395  31.0105 114.7975 0001221 321.0736 221.1939  1.00270182 42004,31.0105,0.0001221,1.00270182,114.7975,321.0736,221.1939
36395,SDO,IGO,21194.27410788,1 36395U 10005A   21194.27410788 -.00000075  00000-0  00000-0 0    13\,2 36395  31.0120 114.7816 0001240 320.8101 212.4582  1.00270028 42016,31.012,0.000124,1.00270028,114.7816,320.8101,212.4582
36395,SDO,IGO,21195.30326929,1 36395U 10005A   21195.30326929 -.00000072  00000-0  00000-0 0    18\,2 36395  31.0137 114.7646 0001254 319.7853 225.0020  1.00269861 42022,31.0137,0.0001254,1.00269861,114.7646,319.7853,225.002
36395,SDO,IGO,21197.31090897,1 36395U 10005A   21197.31090897 -.00000072  00000-0  00000-0 0    13\,2 36395  31.0170 114.7310 0001281 316.0125 233.5151  1.00269564 42040,31.017,0.0001281,1.00269564,114.731,316.0125,233.5151
36395,SDO,IGO,21198.28382737,1 36395U 10005A   21198.28382737 -.00000075  00000-0  00000-0 0    10\,2 36395  31.0188 114.7146 0001300 313.9368 226.8054  1.00269450 42055,31.0188,0.00013,1.0026945,114.7146,313.9368,226.8054
36395,SDO,IGO,21199.27063414,1 36395U 10005A   21199.27063414 -.00000080  00000-0  00000-0 0    14\,2 36395  31.0206 114.6979 0001359 310.2867 226.6840  1.00269369 42068,31.0206,0.0001359,1.00269369,114.6979,310.2867,226.684
36395,SDO,IGO,21200.26434247,1 36395U 10005A   21200.26434247 -.00000087  00000-0  00000-0 0    19\,2 36395  31.0225 114.6811 0001327 309.6540 226.0350  1.00269299 42072,31.0225,0.0001327,1.00269299,114.6811,309.654,226.035
36395,SDO,IGO,21201.26920203,1 36395U 10005A   21201.26920203 -.00000095  00000-0  00000-0 0    11\,2 36395  31.0244 114.6641 0001291 308.6892 229.7436  1.00269253 42089,31.0244,0.0001291,1.00269253,114.6641,308.6892,229.7436
36395,SDO,IGO,21202.26618531,1 36395U 10005A   21202.26618531 -.00000101  00000-0  00000-0 0    18\,2 36395  31.0266 114.6472 0001072 314.6851 223.6455  1.00269204 42095,31.0266,0.0001072,1.00269204,114.6472,314.6851,223.6455
36395,SDO,IGO,21203.29747731,1 36395U 10005A   21203.29747731 -.00000106  00000-0  00000-0 0    12\,2 36395  31.0286 114.6298 0001030 313.0947 237.5217  1.00269208 42102,31.0286,0.000103,1.00269208,114.6298,313.0947,237.5217
36395,SDO,IGO,21204.28337656,1 36395U 10005A   21204.28337656 -.00000107  00000-0  00000-0 0    14\,2 36395  31.0305 114.6131 0001014 310.5760 235.9402  1.00269257 42110,31.0305,0.0001014,1.00269257,114.6131,310.576,235.9402
36395,SDO,IGO,21205.28955550,1 36395U 10005A   21205.28955550 -.00000106  00000-0  00000-0 0    13\,2 36395  31.0326 114.5963 0000877 313.6962 236.0389  1.00269285 42127,31.0326,8.77e-05,1.00269285,114.5963,313.6962,236.0389
36395,SDO,IGO,21206.26507691,1 36395U 10005A   21206.26507691 -.00000102  00000-0  00000-0 0    17\,2 36395  31.0344 114.5800 0000846 312.7824 229.1061  1.00269343 42136,31.0344,8.46e-05,1.00269343,114.58,312.7824,229.1061
36395,SDO,IGO,21207.27618655,1 36395U 10005A   21207.27618655 -.00000097  00000-0  00000-0 0    15\,2 36395  31.0363 114.5632 0000808 312.9175 233.9715  1.00269413 42147,31.0363,8.08e-05,1.00269413,114.5632,312.9175,233.9715
36395,SDO,IGO,21208.23804021,1 36395U 10005A   21208.23804021 -.00000092  00000-0  00000-0 0    11\,2 36395  31.0380 114.5474 0000783 313.9803 220.1283  1.00269490 42155,31.038,7.83e-05,1.0026949,114.5474,313.9803,220.1283
36395,SDO,IGO,21209.22077417,1 36395U 10005A   21209.22077417 -.00000088  00000-0  00000-0 0    17\,2 36395  31.0398 114.5314 0000754 315.8775 212.9884  1.00269569 42168,31.0398,7.54e-05,1.00269569,114.5314,315.8775,212.9884
36395,SDO,IGO,21210.26396976,1 36395U 10005A   21210.26396976 -.00000085  00000-0  00000-0 0    14\,2 36395  31.0414 114.5144 0000735 318.2669 227.1827  1.00269641 42173,31.0414,7.35e-05,1.00269641,114.5144,318.2669,227.1827
36395,SDO,IGO,21211.27832105,1 36395U 10005A   21211.27832105 -.00000084  00000-0  00000+0 0  5355\,2 36395  31.0431 114.4979 0000741 320.3892 231.2317  1.00269694 42152,31.0431,7.41e-05,1.00269694,114.4979,320.3892,231.2317
36395,SDO,IGO,21212.26149427,1 36395U 10005A   21212.26149427 -.00000084  00000-0  00000-0 0    12\,2 36395  31.0446 114.4821 0000714 324.4590 222.0779  1.00269700 42196,31.0446,7.14e-05,1.002697,114.4821,324.459,222.0779
36395,SDO,IGO,21213.25049288,1 36395U 10005A   21213.25049288 -.00000086  00000-0  00000-0 0    18\,2 36395  31.0462 114.4661 0000712 328.1813 215.3745  1.00269688 42208,31.0462,7.12e-05,1.00269688,114.4661,328.1813,215.3745
36395,SDO,IGO,21214.24076966,1 36395U 10005A   21214.24076966 -.00000088  00000-0  00000-0 0    13\,2 36395  31.0477 114.4501 0000691 333.8600 207.1758  1.00269642 42214,31.0477,6.91e-05,1.00269642,114.4501,333.86,207.1758
36395,SDO,IGO,21215.22316946,1 36395U 10005A   21215.22316946 -.00000090  00000-0  00000-0 0    10\,2 36395  31.0493 114.4343 0000732 335.3947 200.2781  1.00269598 42224,31.0493,7.32e-05,1.00269598,114.4343,335.3947,200.2781
36395,SDO,IGO,21216.26090954,1 36395U 10005A   21216.26090954 -.00000091  00000-0  00000-0 0    14\,2 36395  31.0510 114.4176 0000777 336.6415 213.6454  1.00269526 42238,31.051,7.77e-05,1.00269526,114.4176,336.6415,213.6454
36395,SDO,IGO,21217.21993840,1 36395U 10005A   21217.21993840 -.00000092  00000-0  00000-0 0    17\,2 36395  31.0525 114.4021 0000733 344.0946 192.3908  1.00269420 42248,31.0525,7.33e-05,1.0026942,114.4021,344.0946,192.3908
36395,SDO,IGO,21218.24971198,1 36395U 10005A   21218.24971198 -.00000091  00000-0  00000+0 0  5397\,2 36395  31.0548 114.3855 0000477 318.6028 229.6485  1.00266784 42222,31.0548,4.77e-05,1.00266784,114.3855,318.6028,229.6485
36395,SDO,IGO,21219.25173925,1 36395U 10005A   21219.25173925 -.00000090  00000-0  00000-0 0    15\,2 36395  31.0548 114.3694 0001033 321.3664 228.6384  1.00276977 42265,31.0548,0.0001033,1.00276977,114.3694,321.3664,228.6384
36395,SDO,IGO,21220.24883312,1 36395U 10005A   21220.24883312 -.00000087  00000-0  00000-0 0    10\,2 36395  31.0562 114.3529 0001007 324.4841 225.4879  1.00276880 42278,31.0562,0.0001007,1.0027688,114.3529,324.4841,225.4879
36395,SDO,IGO,21221.24586858,1 36395U 10005A   21221.24586858 -.00000084  00000-0  00000-0 0    13\,2 36395  31.0578 114.3364 0000959 330.9174 218.9995  1.00276725 42283,31.0578,9.59e-05,1.00276725,114.3364,330.9174,218.9995
36395,SDO,IGO,21224.22410397,1 36395U 10005A   21224.22410397 -.00000077  00000-0  00000-0 0    10\,2 36395  31.0629 114.2865 0000975 325.4525 219.6545  1.00276294 42316,31.0629,9.75e-05,1.00276294,114.2865,325.4525,219.6545
36395,SDO,IGO,21225.23019264,1 36395U 10005A   21225.23019264 -.00000079  00000-0  00000+0 0  5432\,2 36395  31.0650 114.2694 0000942 323.5035 224.8166  1.00276182 42299,31.065,9.42e-05,1.00276182,114.2694,323.5035,224.8166
36395,SDO,IGO,21228.20735100,1 36395U 10005A   21228.20735100 -.00000095  00000-0  00000-0 0    14\,2 36395  31.0707 114.2187 0000806 317.3549 225.7609  1.00275899 42352,31.0707,8.06e-05,1.00275899,114.2187,317.3549,225.7609
36395,SDO,IGO,21229.19011602,1 36395U 10005A   21229.19011602 -.00000101  00000-0  00000-0 0    15\,2 36395  31.0727 114.2020 0000765 315.4095 222.4980  1.00275869 42363,31.0727,7.65e-05,1.00275869,114.202,315.4095,222.498
36395,SDO,IGO,21230.19491101,1 36395U 10005A   21230.19491101 -.00000106  00000-0  00000-0 0    18\,2 36395  31.0747 114.1850 0000656 314.3333 226.3183  1.00275849 42374,31.0747,6.56e-05,1.00275849,114.185,314.3333,226.3183
36395,SDO,IGO,21231.19954156,1 36395U 10005A   21231.19954156 -.00000108  00000-0  00000+0 0  5468\,2 36395  31.0767 114.1681 0000608 311.2621 232.0748  1.00275863 42356,31.0767,6.08e-05,1.00275863,114.1681,311.2621,232.0748
36395,SDO,IGO,21232.20434302,1 36395U 10005A   21232.20434302 -.00000107  00000-0  00000+0 0  5499\,2 36395  31.0788 114.1512 0000563 311.3308 234.7530  1.00275909 42365,31.0788,5.63e-05,1.00275909,114.1512,311.3308,234.753
36395,SDO,IGO,21233.18104950,1 36395U 10005A   21233.18104950 -.00000104  00000-0  00000-0 0    11\,2 36395  31.0807 114.1348 0000598 307.7414 230.9476  1.00275971 42400,31.0807,5.98e-05,1.00275971,114.1348,307.7414,230.9476
36395,SDO,IGO,21234.17966135,1 36395U 10005A   21234.17966135 -.00000099  00000-0  00000-0 0    15\,2 36395  31.0826 114.1182 0000571 308.3998 230.8021  1.00276044 42410,31.0826,5.71e-05,1.00276044,114.1182,308.3998,230.8021
36395,SDO,IGO,21236.18313270,1 36395U 10005A   21236.18313270 -.00000088  00000-0  00000-0 0    12\,2 36395  31.0862 114.0852 0000480 312.7245 229.7585  1.00276194 42436,31.0862,4.8e-05,1.00276194,114.0852,312.7245,229.7585
36395,SDO,IGO,21237.15722678,1 36395U 10005A   21237.15722678 -.00000084  00000-0  00000-0 0    12\,2 36395  31.0879 114.0692 0000464 312.4373 221.7078  1.00276257 42447,31.0879,4.64e-05,1.00276257,114.0692,312.4373,221.7078
36395,SDO,IGO,21238.62285556,1 36395U 10005A   21238.62285556 -.00000081  00000-0  00000-0 0    11\,2 36395  31.0903 114.0453 0000632 302.3951  40.8661  1.00276306 42451,31.0903,6.32e-05,1.00276306,114.0453,302.3951,40.8661
36395,SDO,IGO,21239.19840906,1 36395U 10005A   21239.19840906 -.00000081  00000-0  00000-0 0    10\,2 36395  31.0913 114.0360 0000599 303.0158 248.0285  1.00276340 42461,31.0913,5.99e-05,1.0027634,114.036,303.0158,248.0285
36395,SDO,IGO,21240.17157507,1 36395U 10005A   21240.17157507 -.00000081  00000-0  00000-0 0    18\,2 36395  31.0929 114.0201 0000576 306.7087 235.6626  1.00276348 42478,31.0929,5.76e-05,1.00276348,114.0201,306.7087,235.6626
36395,SDO,IGO,21241.17637395,1 36395U 10005A   21241.17637395 -.00000083  00000-0  00000-0 0    19\,2 36395  31.0945 114.0038 0000562 310.7964 234.3218  1.00276330 42483,31.0945,5.62e-05,1.0027633,114.0038,310.7964,234.3218
